NORAD_CAT_ID,OBJECT_NAME,OBJECT_TYPE,EPOCH,MEAN_MOTION,ECCENTRICITY,INCLINATION,RA_OF_ASC_NODE,ARG_OF_PERICENTER,MEAN_ANOMALY,BSTAR,MEAN_MOTION_DOT,MEAN_MOTION_DDOT,TLE_LINE0,TLE_LINE1,TLE_LINE2,SEMIMAJOR_AXIS,PERIOD,APOGEE,PERIGEE,DECAYED
53146.0,STARLINK-4099,PAYLOAD,2024-01-01 10:56:43,15.08826773,0.0001245,53.217,157.5294,82.9373,277.1761,0.00015383,2.16e-05,0.0,0 STARLINK-4099,1 53146U 22083Q   24001.45605686  .00002160  00000-0  15383-3 0  9993,2 53146  53.2170 157.5294 0001245  82.9373 277.1761 15.08826773 81340,6917.921,95.438,540.647,538.925,0.0
53146.0,STARLINK-4099,PAYLOAD,2024-01-01 14:07:29,15.08828921,0.0001285,53.2169,156.9346,74.8106,285.3028,0.00016584,2.352e-05,0.0,0 STARLINK-4099,1 53146U 22083Q   24001.58853653  .00002352  00000-0  16584-3 0  9993,2 53146  53.2169 156.9346 0001285  74.8106 285.3028 15.08828921 80733,6917.914,95.438,540.668,538.89,0.0
53146.0,STARLINK-4099,PAYLOAD,2024-01-01 15:42:52,15.08830375,0.0001318,53.2169,156.6376,73.1834,286.9303,0.00017895,2.561e-05,0.0,0 STARLINK-4099,1 53146U 22083Q   24001.65477598  .00002561  00000-0  17895-3 0  9999,2 53146  53.2169 156.6376 0001318  73.1834 286.9303 15.08830375 80740,6917.91,95.438,540.687,538.863,0.0
53146.0,STARLINK-4099,PAYLOAD,2024-01-02 10:47:29,15.08849724,0.0001328,53.2171,153.0701,68.5087,291.6046,0.00017536,2.505e-05,0.0,0 STARLINK-4099,1 53146U 22083Q   24002.44964632  .00002505  00000-0  17536-3 0  9997,2 53146  53.2171 153.0701 0001328  68.5087 291.6046 15.08849724 81493,6917.851,95.437,540.634,538.797,0.0
53146.0,STARLINK-4099,PAYLOAD,2024-01-02 13:58:15,15.08852738,0.0001299,53.2171,152.4744,71.2346,288.8787,0.0001991,2.883e-05,0.0,0 STARLINK-4099,1 53146U 22083Q   24002.58212307  .00002883  00000-0  19910-3 0  9994,2 53146  53.2171 152.4744 0001299  71.2346 288.8787 15.08852738 80880,6917.841,95.437,540.605,538.808,0.0
53146.0,STARLINK-4099,PAYLOAD,2024-01-02 15:33:38,15.08854712,0.0001323,53.2169,152.1774,69.8773,290.2362,0.00021665,3.163e-05,0.0,0 STARLINK-4099,1 53146U 22083Q   24002.64836135  .00003163  00000-0  21665-3 0  9994,2 53146  53.2169 152.1774 0001323  69.8773 290.2362 15.08854712 80893,6917.835,95.437,540.616,538.785,0.0
53146.0,STARLINK-4099,PAYLOAD,2024-01-03 09:02:51,15.08863263,0.0001265,53.2166,148.9069,77.2284,282.8849,0.00015171,2.129e-05,0.0,0 STARLINK-4099,1 53146U 22083Q   24003.37699026  .00002129  00000-0  15171-3 0  9997,2 53146  53.2166 148.9069 0001265  77.2284 282.8849 15.08863263 81636,6917.809,95.436,540.549,538.799,0.0
53146.0,STARLINK-4099,PAYLOAD,2024-01-03 13:49:02,15.08845339,0.0001554,53.2164,148.0153,70.0969,290.019,-7.7005e-06,-4.11e-06,0.0,0 STARLINK-4099,1 53146U 22083Q   24003.57572399 -.00000411  00000-0 -77005-5 0  9992,2 53146  53.2164 148.0153 0001554  70.0969 290.0190 15.08845339 81039,6917.864,95.437,540.804,538.654,0.0
53146.0,STARLINK-4099,PAYLOAD,2024-01-03 16:59:49,15.08836253,0.0001316,53.2163,147.4235,74.7113,285.4024,-7.4881e-05,-1.479e-05,0.0,0 STARLINK-4099,1 53146U 22083Q   24003.70821041 -.00001479  00000-0 -74881-4 0  9991,2 53146  53.2163 147.4235 0001316  74.7113 285.4024 15.08836253 81680,6917.892,95.438,540.667,538.846,0.0
53146.0,STARLINK-4099,PAYLOAD,2024-01-04 13:39:49,15.08842016,0.0001314,53.2161,143.5571,78.0775,282.0364,-0.00013873,-2.495e-05,0.0,0 STARLINK-4099,1 53146U 22083Q   24004.56932672 -.00002495  00000-0 -13873-3 0  9991,2 53146  53.2161 143.5571 0001314  78.0775 282.0364 15.08842016 81186,6917.874,95.437,540.648,538.83,0.0
53146.0,STARLINK-4099,PAYLOAD,2024-01-04 16:50:35,15.08846174,0.0001412,53.217,142.9601,73.9214,286.1934,-0.00010168,-1.906e-05,0.0,0 STARLINK-4099,1 53146U 22083Q   24004.70180455 -.00001906  00000-0 -10168-3 0  9991,2 53146  53.2170 142.9601 0001412  73.9214 286.1934 15.08846174 81833,6917.862,95.437,540.703,538.75,0.0
53146.0,STARLINK-4099,PAYLOAD,2024-01-05 13:30:37,15.08797747,0.000184,53.2167,139.0953,76.7904,283.3293,0.0005685,8.761e-05,0.0,0 STARLINK-4099,1 53146U 22083Q   24005.56293562  .00008761  00000-0  56850-3 0  9992,2 53146  53.2167 139.0953 0001840  76.7904 283.3293 15.08797747 81331,6918.01,95.44,541.147,538.602,0.0
53146.0,STARLINK-4099,PAYLOAD,2024-01-05 15:05:59,15.08840004,0.000148,53.2168,138.7976,76.2755,283.8402,-2.0827e-06,-3.21e-06,0.0,0 STARLINK-4099,1 53146U 22083Q   24005.62916423 -.00000321  00000-0 -20827-5 0  9990,2 53146  53.2168 138.7976 0001480  76.2755 283.8402 15.08840004 81345,6917.88,95.438,540.769,538.722,0.0
53146.0,STARLINK-4099,PAYLOAD,2024-01-06 11:46:00,15.08837934,0.000136,53.2167,134.932,83.3757,276.739,9.6979e-05,1.256e-05,0.0,0 STARLINK-4099,1 53146U 22083Q   24006.49028721  .00001256  00000-0  96979-4 0  9997,2 53146  53.2167 134.9320 0001360  83.3757 276.7390 15.08837934 82103,6917.887,95.438,540.693,538.811,0.0
53146.0,STARLINK-4099,PAYLOAD,2024-01-06 14:56:47,15.08839632,0.0001369,53.2167,134.3373,81.3516,278.7631,0.00010926,1.451e-05,0.0,0 STARLINK-4099,1 53146U 22083Q   24006.62276637  .00001451  00000-0  10926-3 0  9997,2 53146  53.2167 134.3373 0001369  81.3516 278.7631 15.08839632 81493,6917.882,95.438,540.694,538.799,0.0
53146.0,STARLINK-4099,PAYLOAD,2024-01-07 14:47:34,15.08840059,0.0001368,53.2169,129.8767,82.5643,277.5505,8.2817e-05,1.03e-05,0.0,0 STARLINK-4099,1 53146U 22083Q   24007.61636899  .00001030  00000-0  82817-4 0  9999,2 53146  53.2169 129.8767 0001368  82.5643 277.5505 15.08840059 81643,6917.88,95.438,540.692,538.799,0.0
53146.0,STARLINK-4099,PAYLOAD,2024-01-08 14:38:21,15.08841994,0.0001358,53.2171,125.4162,93.6421,266.4726,4.6793e-05,4.57e-06,0.0,0 STARLINK-4099,1 53146U 22083Q   24008.60996938  .00000457  00000-0  46793-4 0  9997,2 53146  53.2171 125.4162 0001358  93.6421 266.4726 15.08841994 81790,6917.874,95.437,540.679,538.8,0.0
53146.0,STARLINK-4099,PAYLOAD,2024-01-09 11:18:22,15.08839584,0.0001128,53.2168,121.55,93.2494,266.8627,4.9474e-05,5e-06,0.0,0 STARLINK-4099,1 53146U 22083Q   24009.47109195  .00000500  00000-0  49474-4 0  9992,2 53146  53.2168 121.5500 0001128  93.2494 266.8627 15.08839584 82551,6917.882,95.438,540.527,538.966,0.0
53146.0,STARLINK-4099,PAYLOAD,2024-01-09 12:53:45,15.08841477,0.0001191,53.2172,121.2527,92.7839,267.3289,6.2378e-05,7.05e-06,0.0,0 STARLINK-4099,1 53146U 22083Q   24009.53733091  .00000705  00000-0  62378-4 0  9992,2 53146  53.2172 121.2527 0001191  92.7839 267.3289 15.08841477 81934,6917.876,95.437,540.565,538.917,0.0
53146.0,STARLINK-4099,PAYLOAD,2024-01-09 17:39:54,15.08843585,0.0001187,53.2173,120.3594,99.7838,260.3289,8.189e-05,1.016e-05,0.0,0 STARLINK-4099,1 53146U 22083Q   24009.73604872  .00001016  00000-0  81890-4 0  9994,2 53146  53.2173 120.3594 0001187  99.7838 260.3289 15.08843585 81968,6917.869,95.437,540.556,538.913,0.0
53146.0,STARLINK-4099,PAYLOAD,2024-01-10 11:09:09,15.08841762,0.0001176,53.2175,117.0865,89.9717,270.141,5.0929e-05,5.23e-06,0.0,0 STARLINK-4099,1 53146U 22083Q   24010.46469196  .00000523  00000-0  50929-4 0  9995,2 53146  53.2175 117.0865 0001176  89.9717 270.1410 15.08841762 82072,6917.875,95.437,540.554,538.926,0.0
53146.0,STARLINK-4099,PAYLOAD,2024-01-10 15:55:18,15.08853688,0.0001349,53.2177,116.193,94.4465,265.6682,4.7136e-05,4.63e-06,0.0,0 STARLINK-4099,1 53146U 22083Q   24010.66340395  .00000463  00000-0  47136-4 0  9995,2 53146  53.2177 116.1930 0001349  94.4465 265.6682 15.08853688 82733,6917.839,95.437,540.637,538.77,0.0
53146.0,STARLINK-4099,PAYLOAD,2024-01-11 10:59:57,15.08833253,0.0001235,53.2178,112.6261,84.3389,275.7744,-2.2698e-05,-6.49e-06,0.0,0 STARLINK-4099,1 53146U 22083Q   24011.45830016 -.00000649  00000-0 -22698-4 0  9991,2 53146  53.2178 112.6261 0001235  84.3389 275.7744 15.08833253 82859,6917.901,95.438,540.62,538.912,0.0
53146.0,STARLINK-4099,PAYLOAD,2024-01-11 14:10:40,15.08876706,0.0001104,53.2178,112.03,114.3254,245.7853,0.00034943,5.283e-05,0.0,0 STARLINK-4099,1 53146U 22083Q   24011.59074088  .00005283  00000-0  34943-3 0  9997,2 53146  53.2178 112.0300 0001104 114.3254 245.7853 15.08876706 82248,6917.768,95.435,540.397,538.869,0.0
53146.0,STARLINK-4099,PAYLOAD,2024-01-11 15:46:03,15.08872528,0.0001126,53.2178,111.7328,101.9444,258.1675,0.0003122,4.689e-05,0.0,0 STARLINK-4099,1 53146U 22083Q   24011.65698424  .00004689  00000-0  31220-3 0  9994,2 53146  53.2178 111.7328 0001126 101.9444 258.1675 15.08872528 82889,6917.781,95.435,540.425,538.867,0.0
53146.0,STARLINK-4099,PAYLOAD,2024-01-12 10:50:43,15.08844409,0.0001443,53.2181,108.1671,102.6531,257.4622,-9.9508e-06,-4.46e-06,0.0,0 STARLINK-4099,1 53146U 22083Q   24012.45189276 -.00000446  00000-0 -99508-5 0  9997,2 53146  53.2181 108.1671 0001443 102.6531 257.4622 15.08844409 83007,6917.867,95.437,540.73,538.734,0.0
53146.0,STARLINK-4099,PAYLOAD,2024-01-12 14:01:29,15.08843649,0.0001359,53.2174,107.5749,75.0704,285.0438,9.5645e-06,-1.36e-06,0.0,0 STARLINK-4099,1 53146U 22083Q   24012.58437407 -.00000136  00000-0  95645-5 0  9996,2 53146  53.2174 107.5749 0001359  75.0704 285.0438 15.08843649 82397,6917.869,95.437,540.674,538.794,0.0
53146.0,STARLINK-4099,PAYLOAD,2024-01-13 12:16:53,15.08843632,0.0001647,53.2185,103.4138,64.3957,295.7205,8.1164e-05,1.004e-05,0.0,0 STARLINK-4099,1 53146U 22083Q   24013.51173595  .00001004  00000-0  81164-4 0  9999,2 53146  53.2185 103.4138 0001647  64.3957 295.7205 15.08843632 83165,6917.869,95.437,540.874,538.595,0.0
53146.0,STARLINK-4099,PAYLOAD,2024-01-13 15:27:39,15.08850784,0.0001716,53.2199,102.8102,67.5078,292.6095,7.0248e-05,8.3e-06,0.0,0 STARLINK-4099,1 53146U 22083Q   24013.64420996  .00000830  00000-0  70248-4 0  9990,2 53146  53.2199 102.8102 0001716  67.5078 292.6095 15.08850784 83181,6917.847,95.437,540.9,538.525,0.0
53146.0,STARLINK-4099,PAYLOAD,2024-01-14 12:07:40,15.08843905,0.0001473,53.216,98.9522,68.2196,291.8953,0.00018534,2.663e-05,0.0,0 STARLINK-4099,1 53146U 22083Q   24014.50533525  .00002663  00000-0  18534-3 0  9994,2 53146  53.2160  98.9522 0001473  68.2196 291.8953 15.08843905 83315,6917.868,95.437,540.752,538.714,0.0
